{
    "firstName0": "John",
    "lastName0": "Smith",
    "address0": {
        "streetAddress": "21 2nd Street",
        "city": "New York",
        "state": "\"NY\"",
        "postalCode": 10021
    },
    "phoneNumbers0": [
        "212 732-1234",
        "646 123-4567"
    ],
    "height0": 10.345e-3,
    "firstName1": "John",
    "lastName1": "Smith",
    "address1": {
        "streetAddress": "21 2nd Street",
        "city": "New York",
        "state": "\"NY\"",
        "postalCode": 10021
    },
    "phoneNumbers1": [
        "212 732-1234",
        "646 123-4567"
    ],
    "height1": 10.345e-3,
    "firstName2": "John",
    "lastName2": "Smith",
    "address2": {
        "streetAddress": "21 2nd Street",
        "city": "New York",
        "state": "\"NY\"",
        "postalCode": 10021
    },
    "phoneNumbers2": [
        "212 732-1234",
        "646 123-4567"
    ],
    "height2": 10.345e-3,
    "firstName3": "John",
    "lastName3": "Smith",
    "address3": {
        "streetAddress": "21 2nd Street",
        "city": "New York",
        "state": "\"NY\"",
        "postalCode": 10021
    },
    "phoneNumbers3": [
        "212 732-1234",
        "646 123-4567"
    ],
    "height3": 10.345e-3,
    "firstName4": "John",
    "lastName4": "Smith",
    "address4": {
        "streetAddress": "21 2nd Street",
        "city": "New York",
        "state": "\"NY\"",
        "postalCode": 10021
    },
    "phoneNumbers4": [
        "212 732-1234",
        "646 123-4567"
    ],
    "height4": 10.345e-3,
    "firstName5": "John",
    "lastName5": "Smith",
    "address5": {
        "streetAddress": "21 2nd Street",
        "city": "New York",
        "state": "\"NY\"",
        "postalCode": 10021
    },
    "phoneNumbers5": [
        "212 732-1234",
        "646 123-4567"
    ],
    "height5": 10.345e-3,
    "firstName6": "John",
    "lastName6": "Smith",
    "address6": {
        "streetAddress": "21 2nd Street",
        "city": "New York",
        "state": "\"NY\"",
        "postalCode": 10021
    },
    "phoneNumbers6": [
        "212 732-1234",
        "646 123-4567"
    ],
    "height6": 10.345e-3,
    "firstName7": "John",
    "lastName7": "Smith",
    "address7": {
        "streetAddress": "21 2nd Street",
        "city": "New York",
        "state": "\"NY\"",
        "postalCode": 10021
    },
    "phoneNumbers7": [
        "212 732-1234",
        "646 123-4567"
    ],
    "height7": 10.345e-3,
    "firstName8": "John",
    "lastName8": "Smith",
    "address8": {
        "streetAddress": "21 2nd Street",
        "city": "New York",
        "state": "\"NY\"",
        "postalCode": 10021
    },
    "phoneNumbers8": [
        "212 732-1234",
        "646 123-4567"
    ],
    "height8": 10.345e-3,
    "firstName9": "John",
    "lastName9": "Smith",
    "address9": {
        "streetAddress": "21 2nd Street",
        "city": "New York",
        "state": "\"NY\"",
        "postalCode": 10021
    },
    "phoneNumbers9": [
        "212 732-1234",
        "646 123-4567"
    ],
    "height9": 10.345e-3,
    "firstName10": "John",
    "lastName10": "Smith",
    "address10": {
        "streetAddress": "21 2nd Street",
        "city": "New York",
        "state": "\"NY\"",
        "postalCode": 10021
    },
    "phoneNumbers10": [
        "212 732-1234",
        "646 123-4567"
    ],
    "height10": 10.345e-3,
    "firstName11": "John",
    "lastName11": "Smith",
    "address11": {
        "streetAddress": "21 2nd Street",
        "city": "New York",
        "state": "\"NY\"",
        "postalCode": 10021
    },
    "phoneNumbers11": [
        "212 732-1234",
        "646 123-4567"
    ],
    "height11": 10.345e-3,
    "firstName12": "John",
    "lastName12": "Smith",
    "address12": {
        "streetAddress": "21 2nd Street",
        "city": "New York",
        "state": "\"NY\"",
        "postalCode": 10021
    },
    "phoneNumbers12": [
        "212 732-1234",
        "646 123-4567"
    ],
    "height12": 10.345e-3,
    "firstName13": "John",
    "lastName13": "Smith",
    "address13": {
        "streetAddress": "21 2nd Street",
        "city": "New York",
        "state": "\"NY\"",
        "postalCode": 10021
    },
    "phoneNumbers13": [
        "212 732-1234",
        "646 123-4567"
    ],
    "height13": 10.345e-3,
    "firstName14": "John",
    "lastName14": "Smith",
    "address14": {
        "streetAddress": "21 2nd Street",
        "city": "New York",
        "state": "\"NY\"",
        "postalCode": 10021
    },
    "phoneNumbers14": [
        "212 732-1234",
        "646 123-4567"
    ],
    "height14": 10.345e-3,
    "firstName15": "John",
    "lastName15": "Smith",
    "address15": {
        "streetAddress": "21 2nd Street",
        "city": "New York",
        "state": "\"NY\"",
        "postalCode": 10021
    },
    "phoneNumbers15": [
        "212 732-1234",
        "646 123-4567"
    ],
    "height15": 10.345e-3,
    "firstName16": "John",
    "lastName16": "Smith",
    "address16": {
        "streetAddress": "21 2nd Street",
        "city": "New York",
        "state": "\"NY\"",
        "postalCode": 10021
    },
    "phoneNumbers16": [
        "212 732-1234",
        "646 123-4567"
    ],
    "height16": 10.345e-3,
    "firstName17": "John",
    "lastName17": "Smith",
    "address17": {
        "streetAddress": "21 2nd Street",
        "city": "New York",
        "state": "\"NY\"",
        "postalCode": 10021
    },
    "phoneNumbers17": [
        "212 732-1234",
        "646 123-4567"
    ],
    "height17": 10.345e-3,
    "firstName18": "John",
    "lastName18": "Smith",
    "address18": {
        "streetAddress": "21 2nd Street",
        "city": "New York",
        "state": "\"NY\"",
        "postalCode": 10021
    },
    "phoneNumbers18": [
        "212 732-1234",
        "646 123-4567"
    ],
    "height18": 10.345e-3,
    "firstName19": "John",
    "lastName19": "Smith",
    "address19": {
        "streetAddress": "21 2nd Street",
        "city": "New York",
        "state": "\"NY\"",
        "postalCode": 10021
    },
    "phoneNumbers19": [
        "212 732-1234",
        "646 123-4567"
    ],
    "height19": 10.345e-3,
    "firstName20": "John",
    "lastName20": "Smith",
    "address20": {
        "streetAddress": "21 2nd Street",
        "city": "New York",
        "state": "\"NY\"",
        "postalCode": 10021
    },
    "phoneNumbers20": [
        "212 732-1234",
        "646 123-4567"
    ],
    "height20": 10.345e-3,
    "firstName21": "John",
    "lastName21": "Smith",
    "address21": {
        "streetAddress": "21 2nd Street",
        "city": "New York",
        "state": "\"NY\"",
        "postalCode": 10021
    },
    "phoneNumbers21": [
        "212 732-1234",
        "646 123-4567"
    ],
    "height21": 10.345e-3,
    "firstName22": "John",
    "lastName22": "Smith",
    "address22": {
        "streetAddress": "21 2nd Street",
        "city": "New York",
        "state": "\"NY\"",
        "postalCode": 10021
    },
    "phoneNumbers22": [
        "212 732-1234",
        "646 123-4567"
    ],
    "height22": 10.345e-3,
    "firstName23": "John",
    "lastName23": "Smith",
    "address23": {
        "streetAddress": "21 2nd Street",
        "city": "New York",
        "state": "\"NY\"",
        "postalCode": 10021
    },
    "phoneNumbers23": [
        "212 732-1234",
        "646 123-4567"
    ],
    "height23": 10.345e-3,
    "firstName24": "John",
    "lastName24": "Smith",
    "address24": {
        "streetAddress": "21 2nd Street",
        "city": "New York",
        "state": "\"NY\"",
        "postalCode": 10021
    },
    "phoneNumbers24": [
        "212 732-1234",
        "646 123-4567"
    ],
    "height24": 10.345e-3,
    "firstName25": "John",
    "lastName25": "Smith",
    "address25": {
        "streetAddress": "21 2nd Street",
        "city": "New York",
        "state": "\"NY\"",
        "postalCode": 10021
    },
    "phoneNumbers25": [
        "212 732-1234",
        "646 123-4567"
    ],
    "height25": 10.345e-3,
    "firstName26": "John",
    "lastName26": "Smith",
    "address26": {
        "streetAddress": "21 2nd Street",
        "city": "New York",
        "state": "\"NY\"",
        "postalCode": 10021
    },
    "phoneNumbers26": [
        "212 732-1234",
        "646 123-4567"
    ],
    "height26": 10.345e-3,
    "firstName27": "John",
    "lastName27": "Smith",
    "address27": {
        "streetAddress": "21 2nd Street",
        "city": "New York",
        "state": "\"NY\"",
        "postalCode": 10021
    },
    "phoneNumbers27": [
        "212 732-1234",
        "646 123-4567"
    ],
    "height27": 10.345e-3,
    "firstName28": "John",
    "lastName28": "Smith",
    "address28": {
        "streetAddress": "21 2nd Street",
        "city": "New York",
        "state": "\"NY\"",
        "postalCode": 10021
    },
    "phoneNumbers28": [
        "212 732-1234",
        "646 123-4567"
    ],
    "height28": 10.345e-3,
    "firstName29": "John",
    "lastName29": "Smith",
    "address29": {
        "streetAddress": "21 2nd Street",
        "city": "New York",
        "state": "\"NY\"",
        "postalCode": 10021
    },
    "phoneNumbers29": [
        "212 732-1234",
        "646 123-4567"
    ],
    "height29": 10.345e-3,
    "firstName30": "John",
    "lastName30": "Smith",
    "address30": {
        "streetAddress": "21 2nd Street",
        "city": "New York",
        "state": "\"NY\"",
        "postalCode": 10021
    },
    "phoneNumbers30": [
        "212 732-1234",
        "646 123-4567"
    ],
    "height30": 10.345e-3,
    "firstName31": "John",
    "lastName31": "Smith",
    "address31": {
        "streetAddress": "21 2nd Street",
        "city": "New York",
        "state": "\"NY\"",
        "postalCode": 10021
    },
    "phoneNumbers31": [
        "212 732-1234",
        "646 123-4567"
    ],
    "height31": 10.345e-3,
    "firstName32": "John",
    "lastName32": "Smith",
    "address32": {
        "streetAddress": "21 2nd Street",
        "city": "New York",
        "state": "\"NY\"",
        "postalCode": 10021
    },
    "phoneNumbers32": [
        "212 732-1234",
        "646 123-4567"
    ],
    "height32": 10.345e-3,
    "firstName33": "John",
    "lastName33": "Smith",
    "address33": {
        "streetAddress": "21 2nd Street",
        "city": "New York",
        "state": "\"NY\"",
        "postalCode": 10021
    },
    "phoneNumbers33": [
        "212 732-1234",
        "646 123-4567"
    ],
    "height33": 10.345e-3,
    "firstName34": "John",
    "lastName34": "Smith",
    "address34": {
        "streetAddress": "21 2nd Street",
        "city": "New York",
        "state": "\"NY\"",
        "postalCode": 10021
    },
    "phoneNumbers34": [
        "212 732-1234",
        "646 123-4567"
    ],
    "height34": 10.345e-3,
    "firstName35": "John",
    "lastName35": "Smith",
    "address35": {
        "streetAddress": "21 2nd Street",
        "city": "New York",
        "state": "\"NY\"",
        "postalCode": 10021
    },
    "phoneNumbers35": [
        "212 732-1234",
        "646 123-4567"
    ],
    "height35": 10.345e-3,
    "firstName36": "John",
    "lastName36": "Smith",
    "address36": {
        "streetAddress": "21 2nd Street",
        "city": "New York",
        "state": "\"NY\"",
        "postalCode": 10021
    },
    "phoneNumbers36": [
        "212 732-1234",
        "646 123-4567"
    ],
    "height36": 10.345e-3,
    "firstName37": "John",
    "lastName37": "Smith",
    "address37": {
        "streetAddress": "21 2nd Street",
        "city": "New York",
        "state": "\"NY\"",
        "postalCode": 10021
    },
    "phoneNumbers37": [
        "212 732-1234",
        "646 123-4567"
    ],
    "height37": 10.345e-3,
    "firstName38": "John",
    "lastName38": "Smith",
    "address38": {
        "streetAddress": "21 2nd Street",
        "city": "New York",
        "state": "\"NY\"",
        "postalCode": 10021
    },
    "phoneNumbers38": [
        "212 732-1234",
        "646 123-4567"
    ],
    "height38": 10.345e-3,
    "firstName39": "John",
    "lastName39": "Smith",
    "address39": {
        "streetAddress": "21 2nd Street",
        "city": "New York",
        "state": "\"NY\"",
        "postalCode": 10021
    },
    "phoneNumbers39": [
        "212 732-1234",
        "646 123-4567"
    ],
    "height39": 10.345e-3,
    "firstName40": "John",
    "lastName40": "Smith",
    "address40": {
        "streetAddress": "21 2nd Street",
        "city": "New York",
        "state": "\"NY\"",
        "postalCode": 10021
    },
    "phoneNumbers40": [
        "212 732-1234",
        "646 123-4567"
    ],
    "height40": 10.345e-3,
    "firstName41": "John",
    "lastName41": "Smith",
    "address41": {
        "streetAddress": "21 2nd Street",
        "city": "New York",
        "state": "\"NY\"",
        "postalCode": 10021
    },
    "phoneNumbers41": [
        "212 732-1234",
        "646 123-4567"
    ],
    "height41": 10.345e-3,
    "firstName42": "John",
    "lastName42": "Smith",
    "address42": {
        "streetAddress": "21 2nd Street",
        "city": "New York",
        "state": "\"NY\"",
        "postalCode": 10021
    },
    "phoneNumbers42": [
        "212 732-1234",
        "646 123-4567"
    ],
    "height42": 10.345e-3,
    "firstName43": "John",
    "lastName43": "Smith",
    "address43": {
        "streetAddress": "21 2nd Street",
        "city": "New York",
        "state": "\"NY\"",
        "postalCode": 10021
    },
    "phoneNumbers43": [
        "212 732-1234",
        "646 123-4567"
    ],
    "height43": 10.345e-3,
    "firstName44": "John",
    "lastName44": "Smith",
    "address44": {
        "streetAddress": "21 2nd Street",
        "city": "New York",
        "state": "\"NY\"",
        "postalCode": 10021
    },
    "phoneNumbers44": [
        "212 732-1234",
        "646 123-4567"
    ],
    "height44": 10.345e-3,
    "firstName45": "John",
    "lastName45": "Smith",
    "address45": {
        "streetAddress": "21 2nd Street",
        "city": "New York",
        "state": "\"NY\"",
        "postalCode": 10021
    },
    "phoneNumbers45": [
        "212 732-1234",
        "646 123-4567"
    ],
    "height45": 10.345e-3,
    "firstName46": "John",
    "lastName46": "Smith",
    "address46": {
        "streetAddress": "21 2nd Street",
        "city": "New York",
        "state": "\"NY\"",
        "postalCode": 10021
    },
    "phoneNumbers46": [
        "212 732-1234",
        "646 123-4567"
    ],
    "height46": 10.345e-3,
    "firstName47": "John",
    "lastName47": "Smith",
    "address47": {
        "streetAddress": "21 2nd Street",
        "city": "New York",
        "state": "\"NY\"",
        "postalCode": 10021
    },
    "phoneNumbers47": [
        "212 732-1234",
        "646 123-4567"
    ],
    "height47": 10.345e-3,
    "firstName48": "John",
    "lastName48": "Smith",
    "address48": {
        "streetAddress": "21 2nd Street",
        "city": "New York",
        "state": "\"NY\"",
        "postalCode": 10021
    },
    "phoneNumbers48": [
        "212 732-1234",
        "646 123-4567"
    ],
    "height48": 10.345e-3,
    "firstName49": "John",
    "lastName49": "Smith",
    "address49": {
        "streetAddress": "21 2nd Street",
        "city": "New York",
        "state": "\"NY\"",
        "postalCode": 10021
    },
    "phoneNumbers49": [
        "212 732-1234",
        "646 123-4567"
    ],
    "height49": 10.345e-3,
    "firstName50": "John",
    "lastName50": "Smith",
    "address50": {
        "streetAddress": "21 2nd Street",
        "city": "New York",
        "state": "\"NY\"",
        "postalCode": 10021
    },
    "phoneNumbers50": [
        "212 732-1234",
        "646 123-4567"
    ],
    "height50": 10.345e-3,
    "firstName51": "John",
    "lastName51": "Smith",
    "address51": {
        "streetAddress": "21 2nd Street",
        "city": "New York",
        "state": "\"NY\"",
        "postalCode": 10021
    },
    "phoneNumbers51": [
        "212 732-1234",
        "646 123-4567"
    ],
    "height51": 10.345e-3,
    "firstName52": "John",
    "lastName52": "Smith",
    "address52": {
        "streetAddress": "21 2nd Street",
        "city": "New York",
        "state": "\"NY\"",
        "postalCode": 10021
    },
    "phoneNumbers52": [
        "212 732-1234",
        "646 123-4567"
    ],
    "height52": 10.345e-3,
    "firstName53": "John",
    "lastName53": "Smith",
    "address53": {
        "streetAddress": "21 2nd Street",
        "city": "New York",
        "state": "\"NY\"",
        "postalCode": 10021
    },
    "phoneNumbers53": [
        "212 732-1234",
        "646 123-4567"
    ],
    "height53": 10.345e-3,
    "firstName54": "John",
    "lastName54": "Smith",
    "address54": {
        "streetAddress": "21 2nd Street",
        "city": "New York",
        "state": "\"NY\"",
        "postalCode": 10021
    },
    "phoneNumbers54": [
        "212 732-1234",
        "646 123-4567"
    ],
    "height54": 10.345e-3,
    "firstName55": "John",
    "lastName55": "Smith",
    "address55": {
        "streetAddress": "21 2nd Street",
        "city": "New York",
        "state": "\"NY\"",
        "postalCode": 10021
    },
    "phoneNumbers55": [
        "212 732-1234",
        "646 123-4567"
    ],
    "height55": 10.345e-3,
    "firstName56": "John",
    "lastName56": "Smith",
    "address56": {
        "streetAddress": "21 2nd Street",
        "city": "New York",
        "state": "\"NY\"",
        "postalCode": 10021
    },
    "phoneNumbers56": [
        "212 732-1234",
        "646 123-4567"
    ],
    "height56": 10.345e-3,
    "firstName57": "John",
    "lastName57": "Smith",
    "address57": {
        "streetAddress": "21 2nd Street",
        "city": "New York",
        "state": "\"NY\"",
        "postalCode": 10021
    },
    "phoneNumbers57": [
        "212 732-1234",
        "646 123-4567"
    ],
    "height57": 10.345e-3,
    "firstName58": "John",
    "lastName58": "Smith",
    "address58": {
        "streetAddress": "21 2nd Street",
        "city": "New York",
        "state": "\"NY\"",
        "postalCode": 10021
    },
    "phoneNumbers58": [
        "212 732-1234",
        "646 123-4567"
    ],
    "height58": 10.345e-3,
    "firstName59": "John",
    "lastName59": "Smith",
    "address59": {
        "streetAddress": "21 2nd Street",
        "city": "New York",
        "state": "\"NY\"",
        "postalCode": 10021
    },
    "phoneNumbers59": [
        "212 732-1234",
        "646 123-4567"
    ],
    "height59": 10.345e-3,
    "firstName60": "John",
    "lastName60": "Smith",
    "address60": {
        "streetAddress": "21 2nd Street",
        "city": "New York",
        "state": "\"NY\"",
        "postalCode": 10021
    },
    "phoneNumbers60": [
        "212 732-1234",
        "646 123-4567"
    ],
    "height60": 10.345e-3,
    "firstName61": "John",
    "lastName61": "Smith",
    "address61": {
        "streetAddress": "21 2nd Street",
        "city": "New York",
        "state": "\"NY\"",
        "postalCode": 10021
    },
    "phoneNumbers61": [
        "212 732-1234",
        "646 123-4567"
    ],
    "height61": 10.345e-3,
    "firstName62": "John",
    "lastName62": "Smith",
    "address62": {
        "streetAddress": "21 2nd Street",
        "city": "New York",
        "state": "\"NY\"",
        "postalCode": 10021
    },
    "phoneNumbers62": [
        "212 732-1234",
        "646 123-4567"
    ],
    "height62": 10.345e-3,
    "firstName63": "John",
    "lastName63": "Smith",
    "address63": {
        "streetAddress": "21 2nd Street",
        "city": "New York",
        "state": "\"NY\"",
        "postalCode": 10021
    },
    "phoneNumbers63": [
        "212 732-1234",
        "646 123-4567"
    ],
    "height63": 10.345e-3,
    "firstName64": "John",
    "lastName64": "Smith",
    "address64": {
        "streetAddress": "21 2nd Street",
        "city": "New York",
        "state": "\"NY\"",
        "postalCode": 10021
    },
    "phoneNumbers64": [
        "212 732-1234",
        "646 123-4567"
    ],
    "height64": 10.345e-3,
    "end": "end"
}
